NORAD_CAT_ID,OBJECT_NAME,OBJECT_TYPE,EPOCH,MEAN_MOTION,ECCENTRICITY,INCLINATION,RA_OF_ASC_NODE,ARG_OF_PERICENTER,MEAN_ANOMALY,BSTAR,MEAN_MOTION_DOT,MEAN_MOTION_DDOT,TLE_LINE0,TLE_LINE1,TLE_LINE2,SEMIMAJOR_AXIS,PERIOD,APOGEE,PERIGEE,DECAYED
53591.0,STARLINK-4674,PAYLOAD,2022-09-10 22:00:00,15.73221002,0.0001174,53.2158,219.771,80.2736,19.2553,-0.00026297,-0.00037395,0.0,0 STARLINK-4674,1 53591U 22104D   22253.91667824 -.00037395  00000-0 -26297-3 0  9997,2 53591  53.2158 219.7710 0001174  80.2736  19.2553 15.73221002  1307,6727.835,91.532,350.49,348.91,0.0
53591.0,STARLINK-4674,PAYLOAD,2022-09-11 14:00:01,15.72999658,0.0001220999999999,53.2168,216.4738,75.9986,201.5003,0.001967,0.00282495,0.0,0 STARLINK-4674,1 53591U 22104D   22254.58334491  .00282495  00000-0  19670-2 0  9999,2 53591  53.2168 216.4738 0001221  75.9986 201.5003 15.72999658  1307,6728.465999999999,91.545,351.153,349.51,0.0
53591.0,STARLINK-4674,PAYLOAD,2022-09-11 20:00:01,15.73222876,0.0001085999999999,53.2153,215.2344,87.5918,166.5688,-4.9229e-05,-7.529e-05,0.0,0 STARLINK-4674,1 53591U 22104D   22254.83334491 -.00007529  00000-0 -49229-4 0  9997,2 53591  53.2153 215.2344 0001086  87.5918 166.5688 15.73222876  2340,6727.83,91.532,350.426,348.964,0.0
53591.0,STARLINK-4674,PAYLOAD,2022-09-11 22:00:00,15.73239547,0.0001134,53.2156,214.8223,87.7785,278.6145,-0.00029648,-0.00042091,0.0,0 STARLINK-4674,1 53591U 22104D   22254.91667824 -.00042091  00000-0 -29648-3 0  9990,2 53591  53.2156 214.8223 0001134  87.7785 278.6145 15.73239547  1303,6727.781999999997,91.531,350.41,348.884,0.0
53591.0,STARLINK-4674,PAYLOAD,2022-09-12 12:00:00,15.73208146,0.0001030999999999,53.2157,211.9369,77.0326,355.0246,0.00029709,0.00041294,0.0,0 STARLINK-4674,1 53591U 22104D   22255.50001157  .00041294  00000-0  29709-3 0  9997,2 53591  53.2157 211.9369 0001031  77.0326 355.0246 15.73208146  1305,6727.871999999999,91.533,350.431,349.043,0.0
53591.0,STARLINK-4674,PAYLOAD,2022-09-12 20:00:01,15.73242085,0.0001137999999999,53.2159,210.2859,90.9108,70.1676,-4.1158e-05,-6.402e-05,0.0,0 STARLINK-4674,1 53591U 22104D   22255.83335648 -.00006402  00000-0 -41158-4 0  9995,2 53591  53.2159 210.2859 0001138  90.9108  70.1676 15.73242085  2508,6727.775,91.531,350.406,348.875,0.0
53591.0,STARLINK-4674,PAYLOAD,2022-09-12 22:00:00,15.73246821,0.0001209,53.2163,209.8739,89.2876,183.9601,-0.0002942,-0.00041786,0.0,0 STARLINK-4674,1 53591U 22104D   22255.91667824 -.00041786  00000-0 -29420-3 0  9999,2 53591  53.2163 209.8739 0001209  89.2876 183.9601 15.73246821  1306,6727.762,91.53,350.44,348.81300000000016,0.0
53591.0,STARLINK-4674,PAYLOAD,2022-09-13 06:00:00,15.73385117,0.0001200999999999,53.2169,208.2276,64.1302,298.0545,-0.0042096,-0.00558221,0.0,0 STARLINK-4674,1 53591U 22104D   22256.25001157 -.00558221  00000-0 -42096-2 0  9998,2 53591  53.2169 208.2276 0001201  64.1302 298.0545 15.73385117  2565,6727.3669999999975,91.522,350.04,348.4240000000001,0.0
53591.0,STARLINK-4674,PAYLOAD,2022-09-13 14:00:01,15.72972103,0.0001311,53.2173,206.5759,68.1753,22.9283,-0.0039795,-0.00520751,0.0,0 STARLINK-4674,1 53591U 22104D   22256.58334491 -.00520751  00000-0 -39795-2 0  9993,2 53591  53.2173 206.5759 0001311  68.1753  22.9283 15.72972103  1303,6728.545,91.546,351.292,349.528,0.0
53591.0,STARLINK-4674,PAYLOAD,2022-09-13 20:00:01,15.72812746,0.0001085999999999,53.2174,205.3386,70.0124,357.4657,-0.0089676,-0.01107508,0.0,0 STARLINK-4674,1 53591U 22104D   22256.83334491 -.01107508  00000-0 -89676-2 0  9996,2 53591  53.2174 205.3386 0001086  70.0124 357.4657 15.72812746  2656,6728.999,91.556,351.595,350.134,0.0
53591.0,STARLINK-4674,PAYLOAD,2022-09-13 22:00:00,15.72612127,0.0001227,53.2176,204.9271,74.6564,104.9048,-0.0090412,-0.01107106,0.0,0 STARLINK-4674,1 53591U 22104D   22256.91667824 -.01107106  00000-0 -90412-2 0  9998,2 53591  53.2176 204.9271 0001227  74.6564 104.9048 15.72612127  1302,6729.571999999999,91.567,352.26199999999994,350.611,0.0
53591.0,STARLINK-4674,PAYLOAD,2022-09-14 14:00:01,15.71009249,9.28e-05,53.2176,201.635,89.23299999999998,264.824,-0.0097214,-0.01111044,0.0,0 STARLINK-4674,1 53591U 22104D   22257.58334491 -.01111044  00000-0 -97214-2 0  9996,2 53591  53.2176 201.6350 0000928  89.2330 264.8240 15.71009249  2770,6734.148,91.661,356.63800000000015,355.38800000000015,0.0
53591.0,STARLINK-4674,PAYLOAD,2022-09-14 22:00:00,15.70216215,0.0001109,53.2173,199.9915,78.2373,1.6154,-0.010179,-0.01123584,0.0,0 STARLINK-4674,1 53591U 22104D   22257.91667824 -.01123584  00000-0 -10179-1 0  9998,2 53591  53.2173 199.9915 0001109  78.2373   1.6154 15.70216215  1301,6736.416,91.707,359.028,357.533,0.0
53591.0,STARLINK-4674,PAYLOAD,2022-09-15 04:00:00,15.69603663,0.0001094999999999,53.2176,198.7622,71.2331,342.3411,-0.010301,-0.01109819,0.0,0 STARLINK-4674,1 53591U 22104D   22258.16667824 -.01109819  00000-0 -10301-1 0  9998,2 53591  53.2176 198.7622 0001095  71.2331 342.3411 15.69603663  2865,6738.168000000002,91.743,360.771,359.295,0.0
53591.0,STARLINK-4674,PAYLOAD,2022-09-15 14:00:01,15.68599068,0.0001137,53.2175,196.7112,93.0171,155.5487,-0.010727,-0.01108503,0.0,0 STARLINK-4674,1 53591U 22104D   22258.58334491 -.01108503  00000-0 -10727-1 0  9996,2 53591  53.2175 196.7112 0001137  93.0171 155.5487 15.68599068  1304,6741.045,91.802,363.676,362.143,0.0
53591.0,STARLINK-4674,PAYLOAD,2022-09-15 22:00:00,15.6779628,0.0001030999999999,53.2175,195.0739,93.9101,237.5618,-0.01108,-0.01107657,0.0,0 STARLINK-4674,1 53591U 22104D   22258.91667824 -.01107657  00000-0 -11080-1 0  9994,2 53591  53.2175 195.0739 0001031  93.9101 237.5618 15.67796280  1307,6743.346,91.849,365.906,364.515,0.0
53591.0,STARLINK-4674,PAYLOAD,2022-09-16 00:00:00,15.67612423,0.000106,53.217,194.6651,104.7443,337.295,-0.01141,-0.01148123,0.0,0 STARLINK-4674,1 53591U 22104D   22259.00001157 -.01148123  00000-0 -11410-1 0  9996,2 53591  53.2170 194.6651 0001060 104.7443 337.2950 15.67612423  3004,6743.873000000001,91.859,366.453,365.023,0.0
53591.0,STARLINK-4674,PAYLOAD,2022-09-16 14:00:01,15.66188389,0.0001122,53.2173,191.8051,87.0028,47.3889,-0.011791,-0.011221,0.0,0 STARLINK-4674,1 53591U 22104D   22259.58334491 -.01122100  00000-0 -11791-1 0  9998,2 53591  53.2173 191.8051 0001122  87.0028  47.3889 15.66188389  1300,6747.96,91.943,370.582,369.068,0.0
53591.0,STARLINK-4674,PAYLOAD,2022-09-16 22:00:00,15.65426683,0.0001235,53.2173,190.1733,105.7527,108.6284,-0.012773,-0.01173277,0.0,0 STARLINK-4674,1 53591U 22104D   22259.91667824 -.01173277  00000-0 -12773-1 0  9996,2 53591  53.2173 190.1733 0001235 105.7527 108.6284 15.65426683  1307,6750.149,91.988,372.848,371.18,0.0
53591.0,STARLINK-4674,PAYLOAD,2022-09-17 06:00:00,15.6458114,0.0001115,53.2176,188.5458,103.8139,189.6362,-0.012534,-0.01118384,0.0,0 STARLINK-4674,1 53591U 22104D   22260.25001157 -.01118384  00000-0 -12534-1 0  9999,2 53591  53.2176 188.5458 0001115 103.8139 189.6362 15.64581140  3194,6752.581,92.037,375.199,373.693,0.0
53591.0,STARLINK-4674,PAYLOAD,2022-09-17 14:00:01,15.63779264,9.73e-05,53.2175,186.9162,96.8982,274.636,-0.012968,-0.01120431,0.0,0 STARLINK-4674,1 53591U 22104D   22260.58334491 -.01120431  00000-0 -12968-1 0  9992,2 53591  53.2175 186.9162 0000973  96.8982 274.6360 15.63779264  1304,6754.889,92.085,377.411,376.097,0.0
53591.0,STARLINK-4674,PAYLOAD,2022-09-17 22:00:00,15.63020406,0.0001081,53.2173,185.2908,106.8673,341.7593,-0.014088,-0.01175281,0.0,0 STARLINK-4674,1 53591U 22104D   22260.91667824 -.01175281  00000-0 -14088-1 0  9996,2 53591  53.2173 185.2908 0001081 106.8673 341.7593 15.63020406  1303,6757.075,92.129,379.67,378.21,0.0
53591.0,STARLINK-4674,PAYLOAD,2022-09-18 14:00:01,15.61370272,0.0001193,53.2174,182.0451,101.7581,138.299,-0.014235,-0.01118896,0.0,0 STARLINK-4674,1 53591U 22104D   22261.58335648 -.01118896  00000-0 -14235-1 0  9999,2 53591  53.2174 182.0451 0001193 101.7581 138.2990 15.61370272  3408,6761.835,92.227,384.507,382.893,0.0
53591.0,STARLINK-4674,PAYLOAD,2022-09-18 22:00:00,15.6059359,0.0001189999999999,53.2169,180.4257,112.9324,201.2695,-0.0151759999999999,-0.01153713,0.0,0 STARLINK-4674,1 53591U 22104D   22261.91667824 -.01153713  00000-0 -15176-1 0  9992,2 53591  53.2169 180.4257 0001190 112.9324 201.2695 15.60593590  1303,6764.078,92.273,386.74800000000016,385.138,0.0
53591.0,STARLINK-4674,PAYLOAD,2022-09-19 06:00:02,15.59763796,9.84e-05,53.2172,178.8095,100.6222,286.9158,-0.015113,-0.01116465,0.0,0 STARLINK-4674,1 53591U 22104D   22262.25002315 -.01116465  00000-0 -15113-1 0  9992,2 53591  53.2172 178.8095 0000984 100.6222 286.9158 15.59763796  3502,6766.477,92.322,389.008,387.676,0.0
53591.0,STARLINK-4674,PAYLOAD,2022-09-19 14:00:01,15.58960297,0.0001084,53.2175,177.1916,92.7993,6.9684,-0.0155789999999999,-0.01116058,0.0,0 STARLINK-4674,1 53591U 22104D   22262.58334491 -.01116058  00000-0 -15579-1 0  9995,2 53591  53.2175 177.1916 0001084  92.7993   6.9684 15.58960297  1301,6768.802,92.369,391.401,389.9330000000001,0.0
53591.0,STARLINK-4674,PAYLOAD,2022-09-19 22:00:00,15.58190672,0.0001291999999999,53.2173,175.5781,104.7743,66.3031,-0.016691,-0.01156865,0.0,0 STARLINK-4674,1 53591U 22104D   22262.91667824 -.01156865  00000-0 -16691-1 0  9997,2 53591  53.2173 175.5781 0001292 104.7743  66.3031 15.58190672  1307,6771.031,92.415,393.77,392.021,0.0
53591.0,STARLINK-4674,PAYLOAD,2022-09-20 14:00:01,15.56551157,0.0001077,53.2174,172.3554,101.6724,209.1872,-0.017043,-0.01114678,0.0,0 STARLINK-4674,1 53591U 22104D   22263.58334491 -.01114678  00000-0 -17043-1 0  9990,2 53591  53.2174 172.3554 0001077 101.6724 209.1872 15.56551157  1304,6775.784000000002,92.512,398.379,396.92,0.0
53591.0,STARLINK-4674,PAYLOAD,2022-09-20 22:00:01,15.55750899,0.0001036,53.2176,170.7483,91.6973,287.6596,-0.017627,-0.01118493,0.0,0 STARLINK-4674,1 53591U 22104D   22263.91668981 -.01118493  00000-0 -17627-1 0  9998,2 53591  53.2176 170.7483 0001036  91.6973 287.6596 15.55750899  3767,6778.108,92.56,400.675,399.271,0.0
